CUSTOM_ID;NAME;ALIAS;DESCRIPTION;LOCATION_ADDRESS;MUNICIPALITY;LATITUDE;LONGITUDE;SUBESTACION
1,26E+14;PRA;PRADERA 34.5 KV;S/E PRADERA 34.5 KV;PRADERA;PRADERA, VAC;3,42655;-76,246932;PRADERA 
1,26E+14;SAL;SALVAJINA 220 KV;S/E SALVAJINA 220 KV;SUAREZ- CAUCA;SUAREZ, CAU;2,942893;-76,7045;SALVAJINA 
1,26E+14;CHA;HIDRO AMAIME 34.5 KV;S/E HIDRO AMAIME 34.5 KV;LOS CEIBOS;PALMIRA, VAC;3,615263;-76,178728;HIDRO AMAIME 
1,26E+14;YU2;YUMBO 220 KV;S/E YUMBO 220 KV;VALLE-YUMBO;YUMBO, VAC;3,558695;-76,501018;YUMBO 
1,26E+14;MAL;MALAGA 115 KV;S/E MALAGA 115 KV;VALLE-BUENAVENTURA;BUENAVENTURA, VAC;3,974961;-77,324996;MALAGA 
1,26E+14;DOL;LA DOLORES 34.5 KV;S/E LA DOLORES 34.5 KV;PALMIRA;PALMIRA, VAC;3,496182;-76,473455;LA DOLORES 
1,26E+14;CHP;CHIPICHAPE 115 KV;S/E CHIPICHAPE 115 KV;VALLE-SANTIAGO DE CALI;SANTIAGO DE CALI, VAC;3,471161;-76,531617;CHIPICHAPE 
1,26E+14;MLD;MIROLINDO 115 KV;S/E MIROLINDO 115 KV;DPTO TOLIMA-MPIUO DE IBAGUE;IBAGUE, TOL;4,403827;-75,173419;MIROLINDO 
1,26E+14;SLU;SAN LUIS 115 KV;S/E SAN LUIS 115 KV;VALLE-SANTIAGO DE CALI;SANTIAGO DE CALI, VAC;3,485142;-76,4871;SAN LUIS 
1,26E+14;ORT;EL ORTIGAL 34.5 KV;S/E EL ORTIGAL 34.5 KV;CANDELARIA;CANDELARIA, VAC;3,282999;-76,343248;EL ORTIGAL 
1,26E+14;LOB;LOBOGUERRERO 34.5 KV;S/E LOBOGUERRERO 34.5 KV;186 KM 60 CTRA DAGUA A LOBOGUERRERO;DAGUA, VAC;3,755694;-76,662096;LOBOGUERRERO 
1,26E+14;RZO;ROZO 34.5 KV;S/E ROZO 34.5 KV;ROZO;PALMIRA, VAC;3,619976;-76,435007;ROZO 
1,26E+14;STD;SANTANDER 115 KV;S/E SANTANDER 115 KV;CAUCA-SANTANDER;JAMUNDI, VAC;2,996869;-76,492594;SANTANDER 
1,26E+14;LPA;LA PAILA 34.5 KV;S/E LA PAILA 34.5 KV;CGTO LA PAILA MPIO ZARZAL;ZARZAL, VAC;4,315191;-76,0757;LA PAILA 
1,26E+14;BJO;BAJO ANCHICAYA 115 KV;S/E BAJO ANCHICAYA 115 KV;VALLE-BUENAVENTURA;BUENAVENTURA, VAC;3,606021;-76,923508;BAJO ANCHICAYA 
1,26E+14;BTU;CH BAJO TULUA 34.5 KV;S/E CH BAJO TULUA 34.5 KV;VALLE SAN PEDRO - CGTO LA ESMERALDA;SAN PEDRO, VAC;3,967999;-76,123752;CH BAJO TULUA 
1,26E+14;CAI;CAICEDONIA 34.5 KV;S/E CAICEDONIA 34.5 KV;CAICEDONIA;CAICEDONIA, VAC;4,341322;-75,833907;CAICEDONIA 
1,26E+14;SID;SAN ISIDRO 34.5 KV;S/E SAN ISIDRO 34.5 KV;MPIO DE JAMUNDI-CGTO DE SAN ISIDRO;JAMUNDI, VAC;3,238826;-76,517078;SAN ISIDRO 
1,26E+14;GBN;GUABINAS 34.5 KV;S/E GUABINAS 34.5 KV;VALLE-YUMBO GUABINAS;YUMBO, VAC;3,558577;-76,502213;GUABINAS 
1,26E+14;TUN;TUNAL 34.5 KV;S/E TUNAL 34.5 KV;CANDELARIA;CANDELARIA, VAC;3,408839;-76,412405;TUNAL 
1,26E+14;VIJ;VIJES 34.5 KV;S/E VIJES 34.5 KV;84 CJON CEMENTERIO VIJES;VIJES, VAC;3,696114;-76,434832;VIJES 
1,26E+14;PCA;PAPEL CAUCA 115 KV;S/E PAPEL CAUCA 115 KV;CAUCA-PUERTO TEJADA;PUERTO TEJADA, CAU;3,301847;-76,471487;PAPEL CAUCA 
1,26E+14;AGB;AGUABLANCA 115 KV;S/E AGUABLANCA 115 KV;SANTIAGO DE CALI;SANTIAGO DE CALI, VAC;3,409778;-76,485242;AGUABLANCA 
1,26E+14;FLO;FLORIDA 34.5 KV;S/E FLORIDA 34.5 KV;FLORIDA;FLORIDA, VAC;3,347845;-76,264779;FLORIDA 
1,26E+14;ARGY;ARGOS YUMBO 34.5 KV;S/E ARGOS YUMBO 34.5 KV;VALLE-YUMBO-GCTO SECTOR INDUSTRIAL;YUMBO, VAC;3,512133;-76,506366;ARGOS YUMBO 
1,26E+14;CSF;CELSIA SOLAR FAREVA 34.5 KV;S/E CELSIA SOLAR FAREVA 34.5 KV;Parque Industrial Caucadesa, Km 43 Vía Panamericana;VILLA RICA, CAU;3,12525;-76,461023;CELSIA SOLAR FAREVA 
1,26E+14;PAN;PANCE 220 KV;S/E PANCE 220 KV;VALLE-SANTIAGO DE CALI;SANTIAGO DE CALI, VAC;3,351923;-76,546989;PANCE 
1,26E+14;ROL;ROLDANILLO 34.5 KV;S/E ROLDANILLO 34.5 KV;ROLDANILLO;ROLDANILLO, VAC;4,415718;-76,150545;ROLDANILLO 
1,26E+14;SNA;SAN ANTONIO 115 KV;S/E SAN ANTONIO 115 KV;VALLE-SANTIAGO DE CALI;SANTIAGO DE CALI, VAC;3,44725;-76,542747;SAN ANTONIO 
1,26E+14;XADT;ACUEDUCTO 34.5 KV;S/E ACUEDUCTO 34.5 KV;VALLE SANTIGO DE CALI-CABECERA MPAL;SANTIAGO DE CALI, VAC;3,447694;-76,493187;ACUEDUCTO 
1,26E+14;LPM;LAS PALMAS 34.5 KV;S/E LAS PALMAS 34.5 KV;PALMIRA CGTO AMAIME;PALMIRA, VAC;3,591752;-76,304606;LAS PALMAS 
1,26E+14;RFR1;RIOFRIO 1 34.5 KV;S/E RIOFRIO 1 34.5 KV;RIOFRIO;RIOFRIO, VAC;4,167186;-76,310559;RIOFRIO 1 
1,26E+14;PRS;EL PARAISO 34.5 KV;S/E EL PARAISO 34.5 KV;EL CERRITO;EL CERRITO, VAC;3,679613;-76,303217;EL PARAISO 
1,26E+14;CIAT;CIAT 34.5 KV;S/E CIAT 34.5 KV;KM 17-RECTA CALI-PALMIRA;PALMIRA, VAC;3,498668;-76,35305;CIAT 
1,26E+14;HPO;HACIENDAS DE POTRERITO 34.5 KV;S/E HACIENDAS DE POTRERITO 34.5 KV;HACIENDAS DE POTRERITO;JAMUNDI, VAC;3,215473;-76,593191;HACIENDAS DE POTRERITO 
1,26E+14;AF2;ALFEREZ II 115 KV;S/E ALFEREZ II 115 KV;MPIO DE SANTIAGO DE CALI-CGTO EL HORMIGUERO;SANTIAGO DE CALI, VAC;3,369762;-76,497207;ALFEREZ II 
1,26E+14;XLRS;LA ROSA 115 KV;S/E LA ROSA 115 KV;RISARALDA-R;PEREIRA, RIS;4,744729;-75,709135;LA ROSA 
1,26E+14;VIRG;LA VIRGINIA 220 KV;S/E LA VIRGINIA 220 KV;CALDAS-LA VIRGINIA;PEREIRA, RIS;4,816353;-75,883187;LA VIRGINIA 
1,26E+14;XDSQ;DOSQUEBRADAS 115 KV;S/E DOSQUEBRADAS 115 KV;RISARALDA-PEREIRA;DOSQUEBRADAS, RIS;4,820278;-75,711646;DOSQUEBRADAS 
1,26E+14;AND;ANDALUCIA 34.5 KV;S/E ANDALUCIA 34.5 KV;ANDALUCIA;ANDALUCIA, VAC;4,181978;-76,161526;ANDALUCIA 
1,26E+14;PVT;PAVITAS 34.5 KV;S/E PAVITAS 34.5 KV;CGTO DE PAVITAS-MPIO DE LA CUMBRE;LA CUMBRE, VAC;3,661102;-76,558814;PAVITAS 
1,26E+14;CAL;CALIMA 115 KV;S/E CALIMA 115 KV;329 KM 6 VIA TABLEROS A EL DARIEN;CALIMA EL DARIEN, VAC;3,880734;-76,560258;CALIMA 
1,26E+14;SME;MELENDEZ 115 KV;S/E MELENDEZ 115 KV;VALLE-SANTIAGO DE CALI;SANTIAGO DE CALI, VAC;3,389496;-76,525442;MELENDEZ 
1,26E+14;YAT;YATACUE 34.5 KV;S/E YATACUE 34.5 KV;VALLE DAGUA-CGTO TERRENOS BALDIOS;DAGUA, VAC;3,592833;-76,83661;YATACUE 
1,26E+14;XLMS;LA MESA 220 KV;S/E LA MESA 220 KV;CUNDINAMARCA;;4,624639;-74,480616;LA MESA 
1,26E+14;XARM;ARMENIA 115 KV;S/E ARMENIA 115 KV;QUINDIO;;4,556022;-75,671628;ARMENIA 
1,26E+14;CCO;CARTON COLOMBIA 115 KV;S/E CARTON COLOMBIA 115 KV;VALLE-YUMBO;YUMBO, VAC;3,566372;-76,479174;CARTON COLOMBIA 
1,26E+14;XDS2;DIESEL 2 34.5 KV;S/E DIESEL 2 34.5 KV;SANTIAGO DE CALI;SANTIAGO DE CALI, VAC;3,4365;-76,517401;DIESEL 2 
1,26E+14;XSNB;SAN BERNARDINO 115 KV;S/E SAN BERNARDINO 115 KV;CAUCA-RURAL;POPAYAN, CAU;2,499541;-76,593977;SAN BERNARDINO 
1,26E+14;XTNY;TENAY 115 KV;S/E TENAY 115 KV;HUILA-RURAL;;3,090605;-75,312965;TENAY 
1,26E+14;XCLM;COLOMBINA 13.2 KV;S/E COLOMBINA 13.2 KV;VALLE-ZARZAL;ZARZAL, VAC;4,312886;-76,07315;COLOMBINA 
1,26E+14;LMA;LA MARIELA 34.5 KV;S/E LA MARIELA 34.5 KV;VALLE-ZARZAL;ZARZAL, VAC;4,392128;-76,068518;LA MARIELA 
1,26E+14;PLO;EL PAILON 115 KV;S/E EL PAILON 115 KV;VALLE-BUENAVENTURA;BUENAVENTURA, VAC;3,868429;-77,005498;EL PAILON 
1,26E+14;XARY;ARROYOHONDO 34.5 KV;S/E ARROYOHONDO 34.5 KV;YUMBO;YUMBO, VAC;3,505058;-76,52281;ARROYOHONDO 
1,26E+14;JMD;JAMUNDI 115 KV;S/E JAMUNDI 115 KV;VIA CHIPAYA - LA 14 DE ALFAGUARA;JAMUNDI, VAC;3,255067;-76,559276;JAMUNDI 
1,26E+14;XGCH;GUACHICONA 34.5 KV;S/E GUACHICONA 34.5 KV;VALLE-YUMBO;YUMBO, VAC;3,581461;-76,486702;GUACHICONA 
1,26E+14;UPE;URBANIZACION PEREIRA 34.5 KV;S/E URBANIZACION PEREIRA 34.5 KV;PALMIRA-CGTO JUANCHITO;PALMIRA, VAC;3,460109;-76,475663;URBANIZACION PEREIRA 
1,26E+14;BUG;BUGA 115 KV;S/E BUGA 115 KV;BUGA;GUADALAJARA DE BUGA, VAC;3,870459;-76,303961;BUGA 
1,26E+14;JUA;JUANCHITO 115 KV;S/E JUANCHITO 115 KV;VALLE-SANTIAGO DE CALI;SANTIAGO DE CALI, VAC;3,442428;-76,483236;JUANCHITO 
1,26E+14;CML;EL CARMELO 115 KV;S/E EL CARMELO 115 KV;CGTO EL CARMELO-CERCA A CAVASA MPIO DE CANDELARIA;CANDELARIA, VAC;3,418004;-76,417462;EL CARMELO 
1,26E+14;XDS1;DIESEL 1 34.5 KV;S/E DIESEL 1 34.5 KV;SANTIAGO DE CALI;SANTIAGO DE CALI, VAC;3,4554;-76,517679;DIESEL 1 
1,26E+14;XAMO;AMOYA 34.5 KV;S/E AMOYA 34.5 KV;CALDAS;CHAPARRAL, TOL;3,652619;-75,47805;AMOYA 
1,26E+14;SLC;LA CAMPIÑA 115 KV;S/E LA CAMPIÑA 115 KV;SANTIAGO DE CALI;SANTIAGO DE CALI, VAC;3,481904;-76,531337;LA CAMPIÑA 
1,26E+14;XTSA;TESALIA 220 KV;S/E TESALIA 220 KV;HUILA-RURAL;;2,330409;-75,867697;TESALIA 
1,26E+14;BQ;BOQUERON 34.5 KV;S/E BOQUERON 34.5 KV;KM 1 SALIDA  ANZOATEGUÍ;AMBALEMA, TOL;4,804108;-74,859341;BOQUERON 
1,26E+14;SB;SIMON BOLIVAR 34.5 KV;S/E SIMON BOLIVAR 34.5 KV;CIUDADELA SIMON BOLIVAR;IBAGUE, TOL;4,435794;-75,176564;SIMON BOLIVAR 
1,26E+14;PN;PLAYON 34.5 KV;S/E PLAYON 34.5 KV;CARRETERA CHAPARRAL PLANADAS;PLANADAS, TOL;3,231606;-75,638161;PLAYON 
1,26E+14;LI;LIBANO 34.5 KV;S/E LIBANO 34.5 KV;BARRIO JARAMILLO;LIBANO, TOL;4,920358;-75,062283;LIBANO 
1,26E+14;PU;PURIFICACION 34.5 KV;S/E PURIFICACION 34.5 KV;AV PRINCIPAL BARRIO LA MIEL;PURIFICACION, TOL;3,855714;-74,938106;PURIFICACION 
1,26E+14;MOR;EL MORRO 34.5 KV;S/E EL MORRO 34.5 KV;BUGA -SUB EL MORRO;GUADALAJARA DE BUGA, VAC;3,894511;-76,295341;EL MORRO 
1,26E+14;GCH;GUACHAL 115 KV;S/E GUACHAL 115 KV;VALLE-PALMIRA;PALMIRA, VAC;3,558947;-76,466811;GUACHAL 
1,26E+14;XBCT;BACATA 500 KV;S/E BACATA 500 KV;CUNDINAMARCA;;4,798808;-74,178194;BACATA
1,26E+14;PAEZ;PAEZ 220 KV;S/E PAEZ 220 KV;CALOTO CAUCA;SANTIAGO DE CALI, VAC;3,427077;-76,468533;PAEZ 
1,26E+14;XLDR;LADERA 34.5 KV;S/E LADERA 34.5 KV;VALLE-SANTIAGO DE CALI;SANTIAGO DE CALI, VAC;3,412176;-76,563644;LADERA 
1,26E+14;XIBG;IBAGUE 220 KV;S/E IBAGUE 220 KV;TOLIMA-IBAGUE;IBAGUE, TOL;4,403198;-75,173083;IBAGUE 
1,26E+14;ALC;ALCALA 34.5 KV;S/E ALCALA 34.5 KV;KM 1 VIA CARTAGO;ALCALA, VAC;4,678359;-75,793169;ALCALA 
1,26E+14;CRC;COSTA RICA 34.5 KV;S/E COSTA RICA 34.5 KV;VALLE-GINEBRA;GINEBRA, VAC;3,721434;-76,279869;COSTA RICA 
1,26E+14;RJD;RIO JAMUNDI 34.5 KV;S/E RIO JAMUNDI 34.5 KV;VALLE - JAMUNDI;JAMUNDI, VAC;3,276642;-76,532464;RIO JAMUNDI 
1,26E+14;CSY;CELSIA SOLAR YUMBO 34.5 KV;S/E CELSIA SOLAR YUMBO 34.5 KV;VALLE-YUMBO;YUMBO, VAC;3,555914;-76,500015;CELSIA SOLAR YUMBO 
1,26E+14;TEM;TERMOEMCALI 115 KV;S/E TERMOEMCALI 115 KV;CGTO DE PILES;PALMIRA, VAC;3,55978;-76,46757;TERMOEMCALI 
1,26E+14;AF1;ALFEREZ I 115 KV;S/E ALFEREZ I 115 KV;SANTIAGO DE CALI-CGTO EL HORMIGUERO;SANTIAGO DE CALI, VAC;3,328063;-76,51291;ALFEREZ I 
1,26E+14;UNI;LA UNION 34.5 KV;S/E LA UNION 34.5 KV;LA UNION;LA UNION, VAC;4,532685;-76,062131;LA UNION 
1,26E+14;DOV;EL DOVIO 34.5 KV;S/E EL DOVIO 34.5 KV;MPIO DE EL DOVIO-CGTO LA ESPERANZA;EL DOVIO, VAC;4,499217;-76,221284;EL DOVIO 
1,26E+14;INC;INCAUCA 34.5 KV;S/E INCAUCA 34.5 KV;INGENIO CAUCA;MIRANDA, CAU;3,275466;-76,318147;INCAUCA 
1,26E+14;AMA;AMAIME 34.5 KV;S/E AMAIME 34.5 KV;PALMIRA;PALMIRA, VAC;3,599261;-76,270923;AMAIME 
1,26E+14;XALT;ALTAMIRA 220 KV;S/E ALTAMIRA 220 KV;HUILA;;2,069558;-75,78764;ALTAMIRA 
1,26E+14;NM2;NIMA 2 13.2 KV;S/E NIMA 2 13.2 KV;PALMIRA - CGTO LA ZAPATA;PALMIRA, VAC;3,545978;-76,202054;NIMA 2 
1,26E+14;SBA;SANTA BARBARA 115 KV;S/E SANTA BARBARA 115 KV;PALMIRA;PALMIRA, VAC;3,527901;-76,322259;SANTA BARBARA 
1,26E+14;YOT;YOTOCO 34.5 KV;S/E YOTOCO 34.5 KV;222 KM 52 CTRA YOTOCO A MEDIACANOA;YOTOCO, VAC;3,882456;-76,374406;YOTOCO 
1,26E+14;XESM;ESMERALDA 220 KV;S/E ESMERALDA 220 KV;CALDAS -CHINCHINA;CHINCHINA, CAL;5,032461;-75,736368;ESMERALDA 
1,26E+14;RGD;RIO GRANDE 110 KV;S/E RIO GRANDE 110 KV;DPTO ANTOQUIA;MEDELLIN, ANT;4,890758;-75,964486;RIO GRANDE
1,26E+14;SPA;SPIAD 34.5 KV;S/E SPIAD 34.5 KV;Buenaventura - PENINSULA AGUADULCE;BUENAVENTURA, VAC;3,905242;-77,07731;SPIAD 
1,26E+14;PRP;PROPAL 115 KV;S/E PROPAL 115 KV;VALLE-YUMBO;YUMBO, VAC;3,547913;-76,499806;PROPAL 
1,26E+14;SUC;SUCROMILES 115 KV;S/E SUCROMILES 115 KV;VALLE-PALMIRA;PALMIRA, VAC;3,51529;-76,343403;SUCROMILES 
1,26E+14;ALB;ALBAN 34.5 KV;S/E ALBAN 34.5 KV;EL CAIRO;EL CAIRO, VAC;4,803566;-76,16721;ALBAN 
1,26E+14;CCR;EL CRUCERO 34.5 KV;S/E EL CRUCERO 34.5 KV;CANDELARIA;CANDELARIA, VAC;3,395183;-76,352704;EL CRUCERO 
1,26E+14;VIN;EL VINCULO 34.5 KV;S/E EL VINCULO 34.5 KV;BUGA;GUADALAJARA DE BUGA, VAC;3,818946;-76,320066;EL VINCULO 
1,26E+14;XQMB;QUIMBO 220 KV;S/E QUIMBO 220 KV;HUILA-RURAL;;2,458318;-75,567053;QUIMBO 
1,26E+14;CUC;CUCUANA 115 KV;S/E CUCUANA 115 KV;TOLIMA -IBAGUE;RONCESVALLES, TOL;4,013;-75,522777;CUCUANA 
1,26E+14;VTO;LA VICTORIA 34.5 KV;S/E LA VICTORIA 34.5 KV;LA VICTORIA;LA VICTORIA, VAC;4,524044;-76,01887;LA VICTORIA 
1,26E+14;JU2;JUANCHITO 220 KV;S/E JUANCHITO 220 KV;SANTIAGO DE CALI;SANTIAGO DE CALI, VAC;3,428755;-76,467926;JUANCHITO 
1,26E+14;FR;FRESNO 34.5 KV;S/E FRESNO 34.5 KV;CARRETERA NACIONAL, VARIANTE,;FRESNO, TOL;5,154382;-75,033509;FRESNO 
1,26E+14;ME;MELGAR 34.5 KV;S/E MELGAR 34.5 KV;ZONA URBANA;MELGAR, TOL;4,202937;-74,639095;MELGAR 
1,26E+14;OR;ORTEGA 34.5 KV;S/E ORTEGA 34.5 KV;VIA A CHAPARRAL;ORTEGA, TOL;3,930611;-75,220467;ORTEGA 
1,26E+14;RB;RIOBLANCO 34.5 KV;S/E RIOBLANCO 34.5 KV;CAMINO VEREDAL;RIOBLANCO, TOL;3,533525;-75,645062;RIOBLANCO 
1,26E+14;VN;VENTANA 34.5 KV;S/E VENTANA 34.5 KV;CHICORAL POR EL CANAL;ESPINAL, TOL;4,241369;-74,999453;VENTANA 
1,26E+14;LA;LANCEROS 115 KV;S/E LANCEROS 115 KV;CARRETERA A CARMEN  APICALÁ;MELGAR, TOL;4,199061;-74,701611;LANCEROS 
1,26E+14;TVL;TERMOVALLE 115 KV;S/E TERMOVALLE 115 KV;VALLE-PALMIRA;PALMIRA, VAC;3,565409;-76,453871;TERMOVALLE 
1,26E+14;NIM;NIMA 1 34.5 KV;S/E NIMA 1 34.5 KV;PALMIRA;PALMIRA, VAC;3,548157;-76,217496;NIMA 1 
1,26E+14;ATU;CH ALTO TULUA 34.5 KV;S/E CH ALTO TULUA 34.5 KV;TULUA CGTO MONTELORO;TULUA, VAC;3,911258;-76,08495;CH ALTO TULUA 
1,26E+14;ALT;ALTO ANCHICAYA 220 KV;S/E ALTO ANCHICAYA 220 KV;VALLE-BUENAVENTURA;BUENAVENTURA, VAC;3,608552;-76,89162;ALTO ANCHICAYA 
1,26E+14;NOR;NORTE 34.5 KV;S/E NORTE 34.5 KV;PALMIRA;PALMIRA, VAC;3,538907;-76,295796;NORTE 
1,26E+14;ARG;LA ARGELIA 34.5 KV;S/E LA ARGELIA 34.5 KV;ARGELIA;VERSALLES, VAC;4,648618;-76,134564;LA ARGELIA 
1,26E+14;GU;GUAMO 34.5 KV;S/E GUAMO 34.5 KV;CARRETRA, SALIDA A SAN LUIS;GUAMO, TOL;4,034003;-74,97583;GUAMO 
1,26E+14;SP;SANTIAGO PEREZ 34.5 KV;S/E SANTIAGO PEREZ 34.5 KV;CERCA AL HOSPITAL;ATACO, TOL;3,398938;-75,604415;SANTIAGO PEREZ 
1,26E+14;SU;SANTA LUCIA 34.5 KV;S/E SANTA LUCIA 34.5 KV;CARRETERA COYAIMA -CHAPARRAL;ORTEGA, TOL;3,786382;-75,250511;SANTA LUCIA 
1,26E+14;SM;SAN MIGUEL 34.5 KV;S/E SAN MIGUEL 34.5 KV;VIA CASTILLA-NATAGAIMA;COYAIMA, TOL;3,765111;-75,073522;SAN MIGUEL 
1,26E+14;SL;SALDAÑA 34.5 KV;S/E SALDAÑA 34.5 KV;ZONA URBANA, CANAL DE RIEGO;SALDANA, TOL;3,922242;-75,017172;SALDAÑA 
1,26E+14;PR;PRADO DISTRIBUCION 34.5 KV;S/E PRADO DISTRIBUCION 34.5 KV;ENTRADA HIDROPRADO;PRADO, TOL;3,753477;-74,894196;PRADO DISTRIBUCION 
1,26E+14;HE;HERVEO 34.5 KV;S/E HERVEO 34.5 KV;ZONA URBANA, CERCA A ESCUELA;HERVEO, TOL;5,084981;-75,176233;HERVEO 
1,26E+14;IC;ICONONZO 34.5 KV;S/E ICONONZO 34.5 KV;SUBESTACION ICONONZO;ICONONZO, TOL;4,176918;-74,534514;ICONONZO 
1,26E+14;HV;HATO VIEJO 34.5 KV;S/E HATO VIEJO 34.5 KV;VIA LAS SEÑORITAS-CHAPARRAL;ATACO, TOL;3,480368;-75,533482;HATO VIEJO 
1,26E+14;CA;CARMEN DE APICALA 34.5 KV;S/E CARMEN DE APICALA 34.5 KV;BARRIO ARENITAS;CARMEN DE APICALA, TOL;4,154156;-74,713303;CARMEN DE APICALA 
1,26E+14;DO;DOIMA 34.5 KV;S/E DOIMA 34.5 KV;BUENOS AIRES-HDA EL ACEITUNO;IBAGUE, TOL;4,357899;-75,051114;DOIMA 
1,26E+14;TOLIMA GRANDE;TOLIMA GRANDE 34.5 KV;S/E TOLIMA GRANDE 34.5 KV;AMARRE DE USUARIOS ESPECIALES;IBAGUE, TOL;4,540127;-75,541723;TOLIMA GRANDE 
1,26E+14;XLNE;LA ENEA 115 KV;S/E LA ENEA 115 KV;CALDAS-R;VILLAMARIA, CAL;5,019497;-75,457213;LA ENEA 
1,26E+14;XHMS;LA HERMOSA 115 KV;S/E LA HERMOSA 115 KV;PEREIRA;;4,876798;-75,630103;LA HERMOSA 
1,26E+14;JRC;JERICO 13.2 KV;S/E JERICO 13.2 KV;DPTO ANTOQUIA-MPIO DE JERICO;MEDELLIN, ANT;4,892766;-75,968024;JERICO 
1,26E+14;ASN;ANSERMANUEVO 34.5 KV;S/E ANSERMANUEVO 34.5 KV;VALLE-ANSERMANUEVO;ANSERMANUEVO, VAC;4,822782;-75,98489;ANSERMANUEVO 
1,26E+14;PRV;PROVIDENCIA 115 KV;S/E PROVIDENCIA 115 KV;VALLE-EL CERRITO;EL CERRITO, VAC;3,63598;-76,287293;PROVIDENCIA 
1,26E+14;MAY;MAYAGUEZ 115 KV;S/E MAYAGUEZ 115 KV;INGENIO  MAYAGUEZ;CANDELARIA, VAC;3,398599;-76,328852;MAYAGUEZ 
1,26E+14;TAB;EL TABOR 115 KV;S/E EL TABOR 115 KV;BUENAVENTURA;BUENAVENTURA, VAC;3,884476;-77,059245;EL TABOR 
1,26E+14;PBL;PALOBLANCO 34.5 KV;S/E PALOBLANCO 34.5 KV;URB EL EDEN - BUGA;GUADALAJARA DE BUGA, VAC;3,922341;-76,293943;PALOBLANCO 
1,26E+14;PMS;PALMASECA 115 KV;S/E PALMASECA 115 KV;VALLE PALMIRA-CGTO PALMASECA;PALMIRA, VAC;3,505298;-76,428439;PALMASECA 
1,26E+14;DAR;EL DARIEN 34.5 KV;S/E EL DARIEN 34.5 KV;790 KM 2 VIA EL DARIEN A PUENTE TIERRA;CALIMA EL DARIEN, VAC;3,948666;-76,471345;EL DARIEN 
1,26E+14;XBET;BETANIA 220 KV;S/E BETANIA 220 KV;HUILA;;2,708386;-75,432692;BETANIA 
1,26E+14;REC;EL RECREO 34.5 KV;S/E EL RECREO 34.5 KV;VALLE-PALMIRA;PALMIRA, VAC;3,516787;-76,299272;EL RECREO 
1,26E+14;SUN;LA UNION 115 KV;S/E LA UNION 115 KV;VALLE-LA UNION;LA UNION, VAC;4,527849;-76,068637;LA UNION 
1,26E+14;TYU;TERMOYUMBO 115 KV;S/E TERMOYUMBO 115 KV;VALLE-YUMBO;YUMBO, VAC;3,554809;-76,498374;TERMOYUMBO 
1,26E+14;XPUR;PURNIO 115 KV;S/E PURNIO 115 KV;CALDAS-RURAL;;5,423664;-74,7187;PURNIO 
1,26E+14;PO;EL PANDO 34.5 KV;S/E EL PANDO 34.5 KV;CARRETERA CHAPARAL SAN ANTONIO;CHAPARRAL, TOL;3,781367;-75,548753;EL PANDO 
1,26E+14;HD;HIDROPRADO 115 KV;S/E HIDROPRADO 115 KV;PRADO;PRADO, TOL;3,754836;-74,891092;HIDROPRADO 
1,26E+14;LT;LETRAS 34.5 KV;S/E LETRAS 34.5 KV;ALTO DE LETRAS;HERVEO, TOL;5,04142;-75,321133;LETRAS 
1,26E+14;TU;TULUNI 115 KV;S/E TULUNI 115 KV;BARRIO CARMENZA ROCHA;CHAPARRAL, TOL;3,719353;-75,474544;TULUNI 
1,26E+14;AR;ARBOLEDA 34.5 KV;S/E ARBOLEDA 34.5 KV;HACIENDA EL ZORRO ARBOLEA;IBAGUE, TOL;4,387902;-75,150239;ARBOLEDA 
1,26E+14;CE;CHENCHE 34.5 KV;S/E CHENCHE 34.5 KV;VEREDA CHENCHE ASOLEADO;PURIFICACION, TOL;3,793187;-75,003234;CHENCHE 
1,26E+14;PY;PAYANDE 34.5 KV;S/E PAYANDE 34.5 KV;VIA SALIDA A IBAGUE;SAN LUIS, TOL;4,299964;-75,098836;PAYANDE 
1,26E+14;RE;HONDA REFUGIO 34.5 KV;S/E HONDA REFUGIO 34.5 KV;BARRIO EL REFUGIO;HONDA, TOL;5,218356;-74,735358;HONDA REFUGIO 
1,26E+14;GL;HONDA GUALI 34.5 KV;S/E HONDA GUALI 34.5 KV;CRA NACIONAL VTE A MARIQUITA;HONDA, TOL;5,204319;-74,750073;HONDA GUALI 
1,26E+14;AP;ALVARADO 34.5 KV;S/E ALVARADO 34.5 KV;ZONA URBANA;ALVARADO, TOL;4,567447;-74,951428;ALVARADO 
1,26E+14;AL;ALPUJARRA 34.5 KV;S/E ALPUJARRA 34.5 KV;ZONA URBANA;ALPUJARRA, TOL;3,385214;-74,936008;ALPUJARRA 
1,26E+14;BARAYA;BARAYA 34.5 KV;S/E BARAYA 34.5 KV;HUILA;;3,276905;-74,947429;BARAYA 
1,26E+14;CV;CALDAS VIEJO 34.5 KV;S/E CALDAS VIEJO 34.5 KV;CARRET AN ALVARADO - VENADILLO;ALVARADO, TOL;4,604957;-74,931676;CALDAS VIEJO 
1,26E+14;ES;ESPINAL 34.5 KV;S/E ESPINAL 34.5 KV;ZONA URBANA CRA 3 CON CALLE 11;ESPINAL, TOL;4,152356;-74,888424;ESPINAL 
1,26E+14;HI;HILARCO 34.5 KV;S/E HILARCO 34.5 KV;VDA HILARCO SALIDA POR CHENCHE;PURIFICACION, TOL;3,782958;-74,978325;HILARCO 
1,26E+14;CO;COELLO 34.5 KV;S/E COELLO 34.5 KV;PUERTA BLANCA;COELLO, TOL;4,236244;-74,895155;COELLO 
1,26E+14;OH;OLAYA HERRERA 34.5 KV;S/E OLAYA HERRERA 34.5 KV;VIA ORTEGA-CHAPARRAL;ORTEGA, TOL;3,81591;-75,328099;OLAYA HERRERA 
1,26E+14;RO;ROVIRA 34.5 KV;S/E ROVIRA 34.5 KV;ZONA URBANA;ROVIRA, TOL;4,233578;-75,239175;ROVIRA 
1,26E+14;AM;AMBALEMA 34.5 KV;S/E AMBALEMA 34.5 KV;SALIDA A LA HACIENDA PAJONALES;AMBALEMA, TOL;4,7837;-74,7747;AMBALEMA 
1,26E+14;CS;CASTILLA 34.5 KV;S/E CASTILLA 34.5 KV;CARRETERA CASTILLA - COYAIMA;COYAIMA, TOL;3,821211;-75,067639;CASTILLA 
1,26E+14;ENEA;ENEA 34.5 KV;S/E ENEA 34.5 KV;ENEA - CHEC;MANIZALES, CAL;5,018594;-75,357751;ENEA 
1,26E+14;PD;PADUA 34.5 KV;S/E PADUA 34.5 KV;SALIDA POR CAMINO VEREDAL,;HERVEO, TOL;5,130811;-75,141758;PADUA 
1,26E+14;SF;SAN FELIPE 115 KV;S/E SAN FELIPE 115 KV;CARRETERA NACIONAL A FALAN;ARMERO GUAYABAL, TOL;5,124353;-74,901103;SAN FELIPE 
1,26E+14;CDZ;CODAZZI 115 KV;S/E CODAZZI 115 KV;PALMIRA;PALMIRA, VAC;3,520667;-76,277037;CODAZZI 
1,26E+14;SVJ;VIJES 115 KV;S/E VIJES 115 KV;132 KM 27 CTRA VIJES A YOTOCO;VIJES, VAC;3,69396;-76,436361;VIJES 
1,26E+14;SEV;SEVILLA 34.5 KV;S/E SEVILLA 34.5 KV;VALLE-SEVILLA;SEVILLA, VAC;4,273933;-75,931285;SEVILLA 
1,26E+14;CST7;CELSIA SOLAR TULUA 13.2 KV;S/E CELSIA SOLAR TULUA 13.2 KV;PREDIO EL TABLA,VRDA MATEGUA-MPIO DE TULUA;TULUA, VAC;4,039566;-76,185934;CELSIA SOLAR TULUA 
1,26E+14;CST6;CELSIA SOLAR TULUA 34.5 KV;S/E CELSIA SOLAR TULUA 34.5 KV;PREDIO EL TABLA,VRDA MATEGUA-MPIO DE TULUA;TULUA, VAC;4,038077;-76,186033;CELSIA SOLAR TULUA 
1,26E+14;GUA;GUACARI 34.5 KV;S/E GUACARI 34.5 KV;GUACARI;GUACARI, VAC;3,758279;-76,33267;GUACARI 
1,26E+14;RFR2;RIOFRIO 2 34.5 KV;S/E RIOFRIO 2 34.5 KV;CGTO LAS PALMAS;RIOFRIO, VAC;4,165148;-76,322039;RIOFRIO 2 
1,26E+14;BIT;BITACO 34.5 KV;S/E BITACO 34.5 KV;483 KM 2 VIA DAGUA A BITACO DRV KM 28N;DAGUA, VAC;3,593095;-76,616324;BITACO 
1,26E+14;CAR;CARTAGO 220 KV;S/E CARTAGO 220 KV;SUB CARTAGO;CARTAGO, VAC;4,729445;-75,909264;CARTAGO 
1,26E+14;FAR;FARFAN 34.5 KV;S/E FARFAN 34.5 KV;TULUA;TULUA, VAC;4,086435;-76,211267;FARFAN 
1,26E+14;TUL;TULUA 115 KV;S/E TULUA 115 KV;TULUA;TULUA, VAC;4,078668;-76,174237;TULUA 
1,26E+14;LAG;EL LAGO 34.5 KV;S/E EL LAGO 34.5 KV;TULUA;TULUA, VAC;4,073133;-76,205557;EL LAGO 
1,26E+14;ERS;EL ROSARIO 34.5 KV;S/E EL ROSARIO 34.5 KV;Callejon La Esperanza,Cgto Tablones Palmira Valle;PALMIRA, VAC;3,613447;-76,201139;EL ROSARIO 
1,26E+14;SPE;SAN PEDRO 34.5 KV;S/E SAN PEDRO 34.5 KV;SAN PEDRO;SAN PEDRO, VAC;4,00376;-76,227548;SAN PEDRO 
1,26E+14;PNA;PANORAMA 34.5 KV;S/E PANORAMA 34.5 KV;RIOFRIO-CGTO PORTUGAL PIEDRAS;RIOFRIO, VAC;4,072848;-76,328086;PANORAMA 
1,26E+14;CRT;EL CERRITO 115 KV;S/E EL CERRITO 115 KV;EL CERRITO;EL CERRITO, VAC;3,685485;-76,325643;EL CERRITO 
1,26E+14;TL;TOLEMAIDA 34.5 KV;S/E TOLEMAIDA 34.5 KV;BASE TOLEMAIDA;NILO, CUN;4,238857;-74,649459;TOLEMAIDA 
1,26E+14;PA;PACOLI 34.5 KV;S/E PACOLI 34.5 KV;VEREDA TORCA;CARMEN DE APICALA, TOL;4,225339;-74,747225;PACOLI 
1,26E+14;SA;SAN ANTONIO 34.5 KV;S/E SAN ANTONIO 34.5 KV;ZONA URBANA;SAN ANTONIO, TOL;3,91584;-75,481781;SAN ANTONIO 
1,26E+14;AT;ATACO 34.5 KV;S/E ATACO 34.5 KV;ZONA URBANA, SALIDA A COYAIMA;ATACO, TOL;3,59528;-75,380675;ATACO 
1,26E+14;RR;RIO RECIO 34.5 KV;S/E RIO RECIO 34.5 KV;POBLACIÓN LA SIERRA, RR;LERIDA, TOL;4,79481;-74,93831;RIO RECIO 
1,26E+14;CU;CUNDAY 34.5 KV;S/E CUNDAY 34.5 KV;SALIDA AL CARMEN DE APICALA;CUNDAY, TOL;4,064019;-74,690019;CUNDAY 
1,26E+14;KP;KAPPA 115 KV;S/E KAPPA 115 KV;BARRIO CARMENZA ROCHA;ESPINAL, TOL;4,2099;-74,891146;KAPPA 
1,26E+14;GY;GUAYABAL 34.5 KV;S/E GUAYABAL 34.5 KV;CARRETERA NACIONAL SALIDA A MA;ARMERO GUAYABAL, TOL;5,036506;-74,886028;GUAYABAL 
1,26E+14;SI;SANTA ISABEL 34.5 KV;S/E SANTA ISABEL 34.5 KV;SALIDA A ANZOATEGUI, KM 1.;SANTA ISABEL, TOL;4,708025;-75,08909;SANTA ISABEL 
1,26E+14;CX;SUBESTACION CEMEX 115 KV;S/E CEMEX 115 KV;SUBESTACION CEMEX;IBAGUE, TOL;4,328684;-75,080924;SUBESTACION CEMEX 
1,26E+14;BG;LA MIEL 34.5 KV;S/E LA MIEL 34.5 KV;LA MIEL;IBAGUE, TOL;4,36845;-75,105006;LA MIEL 
1,26E+14;TE;TOLEMAIDA CELSIA 34.5 KV;S/E TOLEMAIDA CELSIA 34.5 KV;BASE TOLEMAIDA;MELGAR, TOL;4,235625;-74,653611;TOLEMAIDA CELSIA 
1,26E+14;DORADA;LA DORADA 34.5 KV;S/E LA DORADA 34.5 KV;VIA HONDA-DORADA;MANIZALES, CAL;5,287371;-74,746231;LA DORADA 
1,26E+14;BL;BALSILLAS 34.5 KV;S/E BALSILLAS 34.5 KV;CARRETERA COYAIMA -CHAPARRAL,;ORTEGA, TOL;3,791563;-75,268211;BALSILLAS 
1,26E+14;GD;GUALANDAY 115 KV;S/E GUALANDAY 115 KV;ALTO DE GUALANDAY;IBAGUE, TOL;4,292114;-75,042833;GUALANDAY 
1,26E+14;DL;DOLORES 34.5 KV;S/E DOLORES 34.5 KV;ZONA URB, SALIDA A ALPUJARRA;DOLORES, TOL;3,538265;-74,893299;DOLORES 
1,26E+14;DM;DIAMANTE LA LINEA 34.5 KV;S/E DIAMANTE LA LINEA 34.5 KV;CARRETERA CHAPARRAL PLANADAS;CHAPARRAL, TOL;3,559059;-75,507879;DIAMANTE LA LINEA 
1,26E+14;NA;NATAGAIMA 34.5 KV;S/E NATAGAIMA 34.5 KV;SALIDA AL PASO RIO MAGDALENA;NATAGAIMA, TOL;3,607284;-75,091079;NATAGAIMA 
1,26E+14;CJ;CAJAMARCA 115 KV;S/E CAJAMARCA 115 KV;CRA 7 CALLE 23 EL JARDIN;CAJAMARCA, TOL;4,435519;-75,437942;CAJAMARCA 
1,26E+14;BOTE;EL BOTE 115 KV;S/E EL BOTE 115 KV;NEIVA;;2,94063;-75,310596;EL BOTE 
1,26E+14;LE;LERIDA 34.5 KV;S/E LERIDA 34.5 KV;CARRETERA SALIDA A IBAGUE;LERIDA, TOL;4,855989;-74,907758;LERIDA 
1,26E+14;AE;ANGULO 34.5 KV;S/E ANGULO 34.5 KV;ALTO DE LETRAS;HERVEO, TOL;5,031429;-75,306309;ANGULO 
1,26E+14;MD;LOS MEDIOS 34.5 KV;S/E LOS MEDIOS 34.5 KV;VIA SANTIAGO PÉREZ-PLANADAS;ATACO, TOL;3,345003;-75,609256;LOS MEDIOS 
1,26E+14;TY;TENAY 115 KV;S/E TENAY 115 KV;ZONA RURAL;;3,073808;-75,306875;TENAY 
1,26E+14;PG;PARQUE LOGISTICO 34.5 KV;S/E PARQUE LOGISTICO 34.5 KV;PARQUE IND Y LOGDEL TOLIMA;IBAGUE, TOL;4,340347;-75,093138;PARQUE LOGISTICO 
1,26E+14;PI;PICALEÑA 34.5 KV;S/E PICALEÑA 34.5 KV;B. PICALEÑA SALIDA A BOGOTA;IBAGUE, TOL;4,402533;-75,150511;PICALEÑA 
1,26E+14;SD;SALADO 34.5 KV;S/E SALADO 34.5 KV;SALIDA A ALVARADO;IBAGUE, TOL;4,446128;-75,144781;SALADO 
1,26E+14;BR;BRISAS 115 KV;S/E BRISAS 115 KV;BARRIO LAS BRISAS;IBAGUE, TOL;4,426067;-75,229025;BRISAS 
1,26E+14;VE;VENADILLO 34.5 KV;S/E VENADILLO 34.5 KV;CARRETERA NAC. SALIDA A IBAGUE;VENADILLO, TOL;4,704667;-74,934315;VENADILLO 
1,26E+14;SZ;SUAREZ 34.5 KV;S/E SUAREZ 34.5 KV;ENTRADA SUAREZ;SUAREZ, TOL;4,05646;-74,830709;SUAREZ 
1,26E+14;PRX;CELSIA SOLAR PAREX-KITARO 34.5 KV;S/E CELSIA SOLAR PAREX-KITARO 34.5 KV;DEPARTAMENTO CASANARE-MUNICIPIO VILLANUEVA;VILLANUEVA, CA;4,341225;-72,716781;CELSIA SOLAR PAREX-KITARO 
1,26E+14;CSM;CELSIA SOLAR MELENDEZ 34.5 KV;S/E CELSIA SOLAR MELENDEZ 34.5 KV;Km 1 Vía Caloto (Santander de Quilichao);SANTANDER DE QUILICHAO, CAU;3,032986;-76,471511;CELSIA SOLAR MELENDEZ 
1,26E+14;CSC;CELSIA SOLAR CARMELO 34.5 KV;S/E CELSIA SOLAR CARMELO 34.5 KV;VALLE-CANDELARIA;CANDELARIA, VAC;3,415445;-76,414568;CELSIA SOLAR CARMELO 
1,26E+14;CNO;CONTO 34.5 kV;S/E CONTO 34.5 kV;SUBESTACION CONTO RESTREPO;RESTREPO, VAC;3,812658;-76,525632;CONTO 
1,26E+14;DGA;DAGUA 34.5 KV;S/E DAGUA 34.5 KV;S/E DAGUA 34.5 KV;DAGUA, VAC;3,662451;-76,684177;DAGUA 
1,26E+14;CSP3;CELSIA SOLAR PALMIRA 3 34.5 KV;S/E CELSIA SOLAR PALMIRA 3 34.5 KV;PALMIRA;PALMIRA, VAC;3,59525;-76,427566;CELSIA SOLAR PALMIRA 3 
1,26E+14;CSB1;CELSIA SOLAR BUGA 1;S/E CELSIA SOLAR BUGA 1;BUGA;GUADALAJARA DE BUGA, VAC;3,935974;-76,306036;CELSIA SOLAR BUGA 1
1,26E+14;CSME;CELSIA SOLAR MELGAR 34.5 kV;S/E CELSIA SOLAR MELGAR 34.5 kV;S/E CELSIA SOLAR MELGAR;MELGAR, TOL;4,215339;-74,738929;CELSIA SOLAR MELGAR 
1,26E+14;CSSF;SAN FELIPE GRANJA SOLAR 34,5 KV;S/E SAN FELIPE GRANJA SOLAR 34,5 KV;S/E SAN FELIPE GRANJA SOLAR 34,5 KV;ARMERO GUAYABAL, TOL;5,100726;-74,899606;SAN FELIPE GRANJA SOLAR
1,26E+14;CJ2;CAJAMARCA DOS 115 KV;S/E CAJAMARCA DOS 115 KV;VDA ALTAMIRA;CAJAMARCA, TOL;4,439216;-75,436495;CAJAMARCA DOS 
1,26E+14;ROB;ROBLES 34.5 KV;S/E ROBLES 34.5 KV;JAMUNDI;JAMUNDI, VAC;3,142807;-76,627265;ROBLES 
1,26E+14;RT;RIO TULUA 34.5 KV;S/E RIO TULUA 34.5 KV;TULUA;TULUA, VAC;4,043824;-76,12085;RIO TULUA 
1,26E+14;CSFL;CELSIA SOLAR FLANDES 34,5 KV;S/E CELSIA SOLAR FLANDES 34,5 KV;S/E CELSIA SOLAR FLANDES 34,5 KV;FLANDES, TOL;4,242883;-74,871084;CELSIA SOLAR FLANDES
1,26E+14;CSDU;CELSIA SOLAR DULIMA  34,5 KV;S/E CELSIA SOLAR DULIMA  34,5 KV;S/E CELSIA SOLAR DULIMA  34,5 KV;FLANDES, TOL;4,249349;-74,857074;CELSIA SOLAR DULIMA 
1,26E+14;CSYA;CELSIA SOLAR YUMA 34,5 KV;S/E CELSIA SOLAR YUMA 34,5 KV;S/E CELSIA SOLAR YUMA 34,5 KV;FLANDES, TOL;4,25477;-74,858248;CELSIA SOLAR YUMA
1,26E+14;BHA;BAHIA 34.5kV;S/E BAHIA 34.5 kV;CORREGIMIENTO CORDOBA;BUENAVENTURA, VAC;3,889364;-76,973317;BAHIA
1,26E+14;TSC;GRANJA SOLAR CERRITOS 34.5 KV;S/E GRANJA SOLAR CERRITOS 34,5 KV;S/E GRANJA SOLAR CERRITOS - VDA LOS CAUCHOS;MARIQUITA, TOL;5,203861;-74,869125;GRANJA SOLAR CERRITOS 
1,26E+14;CSLV2;CELSIA SOLAR LA VICTORIA 2 34.5 KV;S/E CELSIA SOLAR LA VICTORIA 2 34.5 KV;LA VICTORIA;LA VICTORIA, VAC;4,461961;-76,027606;CELSIA SOLAR LA VICTORIA 2 
1,26E+14;CSLV1;CELSIA SOLAR LA VICTORIA 1 34.5 KV;S/E CELSIA SOLAR LA VICTORIA 1 34.5 KV;LA VICTORIA;LA VICTORIA, VAC;4,463544;-76,032589;CELSIA SOLAR LA VICTORIA 1 
1,26E+14;CP1;CELSIA SOLAR PALMIRA 1 34.5 KV;S/E CELSIA SOLAR PALMIRA 1 34.5 KV;PALMIRA;PALMIRA, VAC;3,588505;-76,428989;CELSIA SOLAR PALMIRA 1 
1,26E+14;ETB;ESTAMBUL;S/E ESTAMBUL 115 kV/34.5 kV/13.2kV;PALMIRA;PALMIRA, VAC;3,486639;-76,4665;ESTAMBUL
1,26E+14;CRL;CRISTAL;S/E CRISTAL 34.5 KV;GUACARI;GUACARI, VAC;3,780316;-76,331737;CRISTAL
1,26E+14;TQM;TECNOQUIMICAS 34.5 KV;S/E TECNOQUIMICAS 34.5 KV;TECNOQUIMICAS JAMUNDI;JAMUNDI, VAC;3,276745;-76,53329;TECNOQUIMICAS 
1,26E+14;EBL;EL BOLO 34.5;S/E EL BOLO 34.5;SUBESTACION EL BOLO - CANDELARIA;CANDELARIA, VAC;3,433464;-76,348308;EL BO
1,26E+14;ESO;EL SALTO 34.5 KV;S/E EL SALTO 34.5 KV;CRA NACIONAL VTE A MARIQUITA;HONDA, TOL;5,203786;-74,749192;EL SALTO 
1,26E+14;CST;CELSIA SOLAR PUERTO TEJADA 34.5KV;S/E CELSIA SOLAR PUERTO TEJADA 34.5KV;PUERTO TEJADA;PUERTO TEJADA, CAU;3,244919;-76,396763;CELSIA SOLAR PUERTO TEJADA
1,26E+14;CAS;CELSIA SOLAR ALPINA;S/E CELSIA SOLAR ALPINA SOPO;CABAÑA ALPINA, SOPO;TOCANCIPA, CUN;4,917221;-73,943963;CELSIA SOLAR PUERTO TEJADA
1,26E+14;CND;CANDELARIA 115 KV;S/E CANDELARIA 115 KV;CANDELARIA;CANDELARIA, VAC;3,392941;-76,353392;CANDELARIA 
1,26E+14;PLG;PALOGRANDE 34.5 KV;S/E PALOGRANDE 34.5 KV;SANTIAGO DE CALI-CGTO PANCE;SANTIAGO DE CALI, VAC;3,326308;-76,554342;PALOGRANDE 
1,26E+14;SMA;SAN MARCOS 220 KV;S/E SAN MARCOS 220 KV;YUMBO;YUMBO, VAC;3,606898;-76,485625;SAN MARCOS 
1,26E+14;RES;RESTREPO 34.5 KV;S/E RESTREPO 34.5 KV;CL 19 8 29;RESTREPO, VAC;3,825517;-76,520938;RESTREPO 
1,26E+14;ZAR;ZARZAL 115 KV;S/E ZARZAL 115 KV;ZARZAL;ZARZAL, VAC;4,389394;-76,063863;ZARZAL 
1,26E+14;CSP;CELSIA SOLAR LA PAILA 34.5 KV;S/E CELSIA SOLAR LA PAILA 34.5 KV;VALLE-ZARZAL-A-3.9KM-SUB-LA-PAILA;ZARZAL, VAC;4,287461;-76,085965;CELSIA SOLAR LA PAILA 
1,26E+14;GIN;GINEBRA 34.5 KV;S/E GINEBRA 34.5 KV;GINEBRA;GINEBRA, VAC;3,72389;-76,314431;GINEBRA 
1,26E+14;VAR;LA VARIANTE 34.5 KV;S/E LA VARIANTE 34.5 KV;CARRETERA PANORAMA VARIANTE TULUA;TULUA, VAC;4,082771;-76,186035;LA VARIANTE 
1,26E+14;PRD;PRODESAL 115 KV;S/E PRODESAL 115 KV;CGTO MATAPALO;PALMIRA, VAC;3,557345;-76,430837;PRODESAL 
1,26E+14;CH;CHAPETON 34.5 KV;S/E CHAPETON 34.5 KV;CRA 2 CLL4B SUR;HONDA, TOL;4,4597;-75,27088;CHAPETON 
1,26E+14;PL;PLANADAS 34.5 KV;S/E PLANADAS 34.5 KV;VIA PLANADAS-GAITANIA;PLANADAS, TOL;3,189012;-75,644142;PLANADAS 
1,26E+14;FL;FLANDES 115 KV;S/E FLANDES 115 KV;CARRETERA NACIONAL VIA A ESPIN;FLANDES, TOL;4,276572;-74,818964;FLANDES 
1,26E+14;MI;MIROLINDO 230 KV;S/E MIROLINDO 230 KV;VEREDA APARCO, SALIDA A ROVIRA;IBAGUE, TOL;4,404225;-75,174271;MIROLINDO
1,26E+14;GP;GUAIPA 34.5 KV;S/E GUAIPA 34.5 KV;CARRETERA  COYAIMA CHAPARRAL;ORTEGA, TOL;3,787103;-75,221103;GUAIPA 
1,26E+14;BT;BALNEARIO-TULUNI 34.5 KV;S/E BALNEARIO-TULUNI 34.5 KV;CARRETERA SALIDA A SALDAÑA;CHAPARRAL, TOL;3,648303;-75,482954;BALNEARIO-TULUNI 
1,26E+14;PB;PALOCABILDO 34.5 KV;S/E PALOCABILDO 34.5 KV;BRR VILLA NUEVA;PALO CABILDO, TOL;5,123821;-75,017303;PALOCABILDO 
1,26E+14;PP;PAPAYO 115 KV;S/E PAPAYO 115 KV;ZONA INDUSTRIAL EL PAPAYO;IBAGUE, TOL;4,429871;-75,205302;PAPAYO 
1,26E+14;SJ;SAN JORGE 34.5 KV;S/E SAN JORGE 34.5 KV;CRA 9 CON CLL 19;IBAGUE, TOL;4,446736;-75,232525;SAN JORGE 
1,26E+14;VG;VERGEL 34.5 KV;S/E VERGEL 34.5 KV;BARRIO EL PEDREGAL, AV AMBALA;IBAGUE, TOL;4,446958;-75,186831;VERGEL 
1,26E+14;CY;COYAIMA 34.5 KV;S/E COYAIMA 34.5 KV;CARRETERA SALIDA A CHAPARRAL;COYAIMA, TOL;4,158517;-74,880332;COYAIMA 
1,26E+14;MA;MARIQUITA 115 KV;S/E MARIQUITA 115 KV;VIA NACIONAL SALIDA A HONDA;MARIQUITA, TOL;5,198878;-74,881764;MARIQUITA 
1,26E+14;NE;NUEVA ESPINAL 115 KV;S/E NUEVA ESPINAL 115 KV;SALIDA FLANDES;ESPINAL, TOL;4,158517;-74,880332;NUEVA ESPINAL 
1,26E+14;CBG;CELSIA SOLAR BUGA BUGALAGRANDE (ANDALUCIA) 34.5KV;S/E CELSIA SOLAR BUGA BUGALAGRANDE (ANDALUCIA) 34.5KV;ZABALETAS;ANDALUCIA, VAC;4,147297;-76,187014;CELSIA SOLAR BUGA BUGALAGRANDE (ANDALUCIA)
1,26E+14;CP2;CELSIA SOLAR PALMIRA 2 34.5 KV;S/E CELSIA SOLAR PALMIRA 2 34.5 KV;PALMIRA;PALMIRA, VAC;3,594262;-76,432489;CELSIA SOLAR PALMIRA 2 
1,26E+14;TPM;CONEXION TEMPORAL SOLAR PALMASECA 1 Y 2 34.5 KV;SOLAR PALMASECA 1 Y 2;PALMASECA-PALMIRA;PALMIRA, VAC;3,522257;-76,436355;CONEXION TEMPORAL SOLAR PALMASECA 1 Y 2 
1,26E+14;LCA;LA CABAÑA 34.5KV;S/E LA CABAÑA 34.5KV;PUERTO TEJADA;PUERTO TEJADA, CAU;3,205427;-76,414737;LA CABAÑA
1,26E+14;TRO;CONEXION SOLAR ROVIRA;SOLAR ROVIRA;ROVIRA;ROVIRA, TOL;4,22876;-75,240398;CONEXION SOLAR ROVIRA
1,26E+14;PVO;PUERTO VIEJO 34.5 KV;S/E PUERTO VIEJO 34.5 KV;AMBALEMA;AMBALEMA, TOL;4,79807;-74,829224;PUERTO VIEJO 
1,26E+14;PV1;PORVENIR 34.5 KV;S/E PORVENIR 34.5 KV;VIA CHAPARRAL - RIOBLANCO;RIOBLANCO, TOL;3,58454;-75,59186;PORVENIR 
1,26E+14;ARS;ARRIEROS 34.5 KV;S/E ARRIEROS 34.5 KV;AFUERAS ZONA URBA LIBANO;LIBANO, TOL;4,922668;-75,073642;ARRIEROS 
1,26E+14;CB2;CELSIA SOLAR BUGA 2;S/E CELSIA SOLAR BUGA 2;GUADALAJARA DE BUGA;GUADALAJARA DE BUGA, VAC;3,931905;-76,316134;CELSIA SOLAR BUGA 2
1,26E+14;SAN FELIPE LOS CABALLEROS  34,5 KV;GRANJA SOLAR LOS CABALLEROS  34,5 KV;S/E GRANJA SOLAR LOS CABALLEROS  34,5 KV;S/E SAN FELIPE LOS CABALLEROS  34,5 KV;ARMERO GUAYABAL, TOL;5,104656;-74,894227;GRANJA SOLAR LOS CABALLEROS 
1,26E+14;SAN FELIPE LA MEDINA 34,5 KV;GRANJA SOLAR LA MEDINA 34,5 KV;S/E GRANJA SOLAR LA MEDINA 34,5 KV;S/E GRANJA SOLAR LA MEDINA 34,5 KV;ARMERO GUAYABAL, TOL;5,104649;-74,894068;GRANJA SOLAR LA MEDINA